{
    "type": "FeatureCollection",
    "crs": {
        "type": "name",
        "properties": {
            "name": "EPSG:3857"
        }
    },
    "features": [
        {
            "type": "Feature",
            "geometry": {
                "crs": {
                    "type": "name",
                    "properties": {
                        "name": "EPSG:3857"
                    }
                },
                "type": "Polygon",
                "coordinates": [
                    [
                        [
                            12645754.464655994,
                            3810814.409660208
                        ],
                        [
                            12656992.743065048,
                            3810814.409660208
                        ],
                        [
                            12656992.743065048,
                            4330781.888550531
                        ],
                        [
                            12645754.464655994,
                            4330781.888550531
                        ],
                        [
                            12645754.464655994,
                            3810814.409660208
                        ]
                    ]
                ]
            },
            "properties": {
                "id": 889,
                "city": "henan",
                "country": "China",
                "shp_name": "henan_2_1_1_1_1_2",
                "continent": "Asia",
                "created_at": "2025-12-24T18:40:18.384978",
                "updated_at": "2025-12-24T18:40:18.384978",
                "coordinate_system": "EPSG:3857"
            }
        },
        {
            "type": "Feature",
            "geometry": {
                "crs": {
                    "type": "name",
                    "properties": {
                        "name": "EPSG:3857"
                    }
                },
                "type": "Polygon",
                "coordinates": [
                    [
                        [
                            12656409.135875627,
                            3761764.744055262
                        ],
                        [
                            12667825.199036133,
                            3761764.744055262
                        ],
                        [
                            12667825.199036133,
                            4351253.730614014
                        ],
                        [
                            12656409.135875627,
                            4351253.730614014
                        ],
                        [
                            12656409.135875627,
                            3761764.744055262
                        ]
                    ]
                ]
            },
            "properties": {
                "id": 890,
                "city": "henan",
                "country": "China",
                "shp_name": "henan_2_1_1_1_2_1",
                "continent": "Asia",
                "created_at": "2025-12-24T18:40:26.727632",
                "updated_at": "2025-12-24T18:40:26.727632",
                "coordinate_system": "EPSG:3857"
            }
        },
        {
            "type": "Feature",
            "geometry": {
                "crs": {
                    "type": "name",
                    "properties": {
                        "name": "EPSG:3857"
                    }
                },
                "type": "Polygon",
                "coordinates": [
                    [
                        [
                            12667556.009892747,
                            3743287.308113743
                        ],
                        [
                            12678974.682863733,
                            3743287.308113743
                        ],
                        [
                            12678974.682863733,
                            4349646.65343554
                        ],
                        [
                            12667556.009892747,
                            4349646.65343554
                        ],
                        [
                            12667556.009892747,
                            3743287.308113743
                        ]
                    ]
                ]
            },
            "properties": {
                "id": 891,
                "city": "henan",
                "country": "China",
                "shp_name": "henan_2_1_1_1_2_2",
                "continent": "Asia",
                "created_at": "2025-12-24T18:40:34.717929",
                "updated_at": "2025-12-24T18:40:34.717929",
                "coordinate_system": "EPSG:3857"
            }
        },
        {
            "type": "Feature",
            "geometry": {
                "crs": {
                    "type": "name",
                    "properties": {
                        "name": "EPSG:3857"
                    }
                },
                "type": "Polygon",
                "coordinates": [
                    [
                        [
                            12678635.083994675,
                            3733760.127817281
                        ],
                        [
                            12689838.503306506,
                            3733760.127817281
                        ],
                        [
                            12689838.503306506,
                            4349474.314884515
                        ],
                        [
                            12678635.083994675,
                            4349474.314884515
                        ],
                        [
                            12678635.083994675,
                            3733760.127817281
                        ]
                    ]
                ]
            },
            "properties": {
                "id": 892,
                "city": "henan",
                "country": "China",
                "shp_name": "henan_2_1_1_2_1_1",
                "continent": "Asia",
                "created_at": "2025-12-24T18:40:41.584646",
                "updated_at": "2025-12-24T18:40:41.584646",
                "coordinate_system": "EPSG:3857"
            }
        },
        {
            "type": "Feature",
            "geometry": {
                "crs": {
                    "type": "name",
                    "properties": {
                        "name": "EPSG:3857"
                    }
                },
                "type": "Polygon",
                "coordinates": [
                    [
                        [
                            12689571.223899985,
                            3733460.965175164
                        ],
                        [
                            12700886.859931096,
                            3733460.965175164
                        ],
                        [
                            12700886.859931096,
                            4348369.37150846
                        ],
                        [
                            12689571.223899985,
                            4348369.37150846
                        ],
                        [
                            12689571.223899985,
                            3733460.965175164
                        ]
                    ]
                ]
            },
            "properties": {
                "id": 893,
                "city": "henan",
                "country": "China",
                "shp_name": "henan_2_1_1_2_1_2",
                "continent": "Asia",
                "created_at": "2025-12-24T18:40:50.77385",
                "updated_at": "2025-12-24T18:40:50.77385",
                "coordinate_system": "EPSG:3857"
            }
        }
    ]
}