{
    "type": "FeatureCollection",
    "crs": {
        "type": "name",
        "properties": {
            "name": "urn:ogc:def:crs:EPSG::3857"
        }
    },
    "features": [
        {
            "id": "27ef53d0-6b32-498f-bc7b-0d975999ea27",
            "type": "Feature",
            "geometry": {
                "type": "Polygon",
                "coordinates": [
                    [
                        [12650315.360400783, 4076037.0977246836],
                        [12693090.79860414, 4076037.0977246836],
                        [12693090.79860414, 4123291.8893139036],
                        [12650315.360400783, 4123291.8893139036],
                        [12650315.360400783, 4076037.0977246836]
                    ]
                ]
            },
            "properties": {
                "id": "27ef53d0-6b32-498f-bc7b-0d975999ea27",
                "text": "简概范围",
                "type": "简要概念模型生成范围"
            }
        }
    ]
}
